ONEWEB-0321             
1 49191U 21083F   26090.24719032  .00000050  00000+0  90639-4 0  9998
2 49191  87.9144 289.9976 0002018  86.5598 273.5767 13.20772075226541
ONEWEB-0322             
1 49192U 21083G   26090.22571379  .00000079  00000+0  18261-3 0  9998
2 49192  87.9001 335.7609 0002129  86.1643 273.9730 13.13468543220684
ONEWEB-0324             
1 49193U 21083H   26090.21061498  .00000131  00000+0  30029-3 0  9999
2 49193  87.9243 350.9447 0001762  73.7981 286.3345 13.18688710219729
ONEWEB-0325             
1 49194U 21083J   26090.21391251  .00000098  00000+0  21473-3 0  9998
2 49194  87.9236 350.9594 0001788  81.0836 279.0499 13.18688931219739
ONEWEB-0326             
1 49195U 21083K   26090.22890887  .00000074  00000+0  15505-3 0  9992
2 49195  87.9245 350.9478 0001473  83.6549 276.4751 13.18688535219722
ONEWEB-0327             
1 49196U 21083L   26090.22862396  .00000102  00000+0  22485-3 0  9994
2 49196  87.9235 350.9585 0001418  89.8463 270.2832 13.18686974219742
ONEWEB-0328             
1 49197U 21083M   26090.21555943  .00000323  00000+0  84985-3 0  9999
2 49197  87.9018 335.7261 0001702  75.0837 285.0480 13.13469035220660
ONEWEB-0331             
1 49198U 21083N   26090.22215535  .00000116  00000+0  26231-3 0  9991
2 49198  87.9246 350.9426 0001437  75.6298 284.4993 13.18688965219736
ONEWEB-0333             
1 49199U 21083P   26090.21048128  .00000397  00000+0  10511-2 0  9997
2 49199  87.9001 335.7621 0001682  80.9742 279.1578 13.13469156220678
ONEWEB-0334             
1 49200U 21083Q   26090.26455988  .00000140  00000+0  31254-3 0  9995
2 49200  87.9135 290.0101 0002660  94.6202 265.5235 13.20772616226508
ONEWEB-0335             
1 49201U 21083R   26090.20540014  .00000352  00000+0  92972-3 0  9994
2 49201  87.9007 335.7582 0001511  79.4084 280.7215 13.13471591220680
ONEWEB-0336             
1 49202U 21083S   26090.17661231 -.00000327  00000+0 -92956-3 0  9992
2 49202  87.9004 335.7599 0001350  72.6625 287.4652 13.13470560220676
ONEWEB-0337             
1 49203U 21083T   26090.18665197  .00000099  00000+0  23752-3 0  9991
2 49203  87.9001 335.7664 0001653  74.3370 285.7941 13.13471529220677
ONEWEB-0338             
1 49204U 21083U   26090.08779121  .00000009  00000+0 -87766-5 0  9993
2 49204  87.9135 290.0504 0002044  91.6697 268.4670 13.20771969226505
ONEWEB-0339             
1 49205U 21083V   26090.19523275  .00000107  00000+0  25912-3 0  9994
2 49205  87.9009 335.7546 0001964  79.5552 280.5799 13.13472008220655
ONEWEB-0340             
1 49206U 21083W   26090.20896521  .00000096  00000+0  21190-3 0  9995
2 49206  87.9246 350.9506 0001675  79.5511 280.5810 13.18688384219695
