[{"OBJECT_NAME":"ONEWEB-0321","OBJECT_ID":"2021-083F","EPOCH":"2026-03-31T05:55:57.243648","MEAN_MOTION":13.20772075,"ECCENTRICITY":0.0002018,"INCLINATION":87.9144,"RA_OF_ASC_NODE":289.9976,"ARG_OF_PERICENTER":86.5598,"MEAN_ANOMALY":273.5767,"EPHEMERIS_TYPE":0,"CLASSIFICATION_TYPE":"U","NORAD_CAT_ID":49191,"ELEMENT_SET_NO":999,"REV_AT_EPOCH":22654,"BSTAR":9.063900000000001e-05,"MEAN_MOTION_DOT":5e-07,"MEAN_MOTION_DDOT":0.0},{"OBJECT_NAME":"ONEWEB-0322","OBJECT_ID":"2021-083G","EPOCH":"2026-03-31T05:25:01.671456","MEAN_MOTION":13.13468543,"ECCENTRICITY":0.0002129,"INCLINATION":87.9001,"RA_OF_ASC_NODE":335.7609,"ARG_OF_PERICENTER":86.1643,"MEAN_ANOMALY":273.973,"EPHEMERIS_TYPE":0,"CLASSIFICATION_TYPE":"U","NORAD_CAT_ID":49192,"ELEMENT_SET_NO":999,"REV_AT_EPOCH":22068,"BSTAR":0.00018261,"MEAN_MOTION_DOT":7.9e-07,"MEAN_MOTION_DDOT":0.0},{"OBJECT_NAME":"ONEWEB-0324","OBJECT_ID":"2021-083H","EPOCH":"2026-03-31T05:03:17.134272","MEAN_MOTION":13.1868871,"ECCENTRICITY":0.0001762,"INCLINATION":87.9243,"RA_OF_ASC_NODE":350.9447,"ARG_OF_PERICENTER":73.7981,"MEAN_ANOMALY":286.3345,"EPHEMERIS_TYPE":0,"CLASSIFICATION_TYPE":"U","NORAD_CAT_ID":49193,"ELEMENT_SET_NO":999,"REV_AT_EPOCH":21972,"BSTAR":0.00030029,"MEAN_MOTION_DOT":1.31e-06,"MEAN_MOTION_DDOT":0.0},{"OBJECT_NAME":"ONEWEB-0325","OBJECT_ID":"2021-083J","EPOCH":"2026-03-31T05:08:02.040864","MEAN_MOTION":13.18688931,"ECCENTRICITY":0.0001788,"INCLINATION":87.9236,"RA_OF_ASC_NODE":350.9594,"ARG_OF_PERICENTER":81.0836,"MEAN_ANOMALY":279.0499,"EPHEMERIS_TYPE":0,"CLASSIFICATION_TYPE":"U","NORAD_CAT_ID":49194,"ELEMENT_SET_NO":999,"REV_AT_EPOCH":21973,"BSTAR":0.00021473,"MEAN_MOTION_DOT":9.8e-07,"MEAN_MOTION_DDOT":0.0},{"OBJECT_NAME":"ONEWEB-0326","OBJECT_ID":"2021-083K","EPOCH":"2026-03-31T05:29:37.726368","MEAN_MOTION":13.18688535,"ECCENTRICITY":0.0001473,"INCLINATION":87.9245,"RA_OF_ASC_NODE":350.9478,"ARG_OF_PERICENTER":83.6549,"MEAN_ANOMALY":276.4751,"EPHEMERIS_TYPE":0,"CLASSIFICATION_TYPE":"U","NORAD_CAT_ID":49195,"ELEMENT_SET_NO":999,"REV_AT_EPOCH":21972,"BSTAR":0.00015505,"MEAN_MOTION_DOT":7.4e-07,"MEAN_MOTION_DDOT":0.0},{"OBJECT_NAME":"ONEWEB-0327","OBJECT_ID":"2021-083L","EPOCH":"2026-03-31T05:29:13.110144","MEAN_MOTION":13.18686974,"ECCENTRICITY":0.0001418,"INCLINATION":87.9235,"RA_OF_ASC_NODE":350.9585,"ARG_OF_PERICENTER":89.8463,"MEAN_ANOMALY":270.2832,"EPHEMERIS_TYPE":0,"CLASSIFICATION_TYPE":"U","NORAD_CAT_ID":49196,"ELEMENT_SET_NO":999,"REV_AT_EPOCH":21974,"BSTAR":0.00022485,"MEAN_MOTION_DOT":1.02e-06,"MEAN_MOTION_DDOT":0.0},{"OBJECT_NAME":"ONEWEB-0328","OBJECT_ID":"2021-083M","EPOCH":"2026-03-31T05:10:24.334752","MEAN_MOTION":13.13469035,"ECCENTRICITY":0.0001702,"INCLINATION":87.9018,"RA_OF_ASC_NODE":335.7261,"ARG_OF_PERICENTER":75.0837,"MEAN_ANOMALY":285.048,"EPHEMERIS_TYPE":0,"CLASSIFICATION_TYPE":"U","NORAD_CAT_ID":49197,"ELEMENT_SET_NO":999,"REV_AT_EPOCH":22066,"BSTAR":0.00084985,"MEAN_MOTION_DOT":3.23e-06,"MEAN_MOTION_DDOT":0.0},{"OBJECT_NAME":"ONEWEB-0331","OBJECT_ID":"2021-083N","EPOCH":"2026-03-31T05:19:54.222240","MEAN_MOTION":13.18688965,"ECCENTRICITY":0.0001437,"INCLINATION":87.9246,"RA_OF_ASC_NODE":350.9426,"ARG_OF_PERICENTER":75.6298,"MEAN_ANOMALY":284.4993,"EPHEMERIS_TYPE":0,"CLASSIFICATION_TYPE":"U","NORAD_CAT_ID":49198,"ELEMENT_SET_NO":999,"REV_AT_EPOCH":21973,"BSTAR":0.00026231,"MEAN_MOTION_DOT":1.16e-06,"MEAN_MOTION_DDOT":0.0},{"OBJECT_NAME":"ONEWEB-0333","OBJECT_ID":"2021-083P","EPOCH":"2026-03-31T05:03:05.582592","MEAN_MOTION":13.13469156,"ECCENTRICITY":0.0001682,"INCLINATION":87.9001,"RA_OF_ASC_NODE":335.7621,"ARG_OF_PERICENTER":80.9742,"MEAN_ANOMALY":279.1578,"EPHEMERIS_TYPE":0,"CLASSIFICATION_TYPE":"U","NORAD_CAT_ID":49199,"ELEMENT_SET_NO":999,"REV_AT_EPOCH":22067,"BSTAR":0.0010511,"MEAN_MOTION_DOT":3.97e-06,"MEAN_MOTION_DDOT":0.0},{"OBJECT_NAME":"ONEWEB-0334","OBJECT_ID":"2021-083Q","EPOCH":"2026-03-31T06:20:57.973632","MEAN_MOTION":13.20772616,"ECCENTRICITY":0.000266,"INCLINATION":87.9135,"RA_OF_ASC_NODE":290.0101,"ARG_OF_PERICENTER":94.6202,"MEAN_ANOMALY":265.5235,"EPHEMERIS_TYPE":0,"CLASSIFICATION_TYPE":"U","NORAD_CAT_ID":49200,"ELEMENT_SET_NO":999,"REV_AT_EPOCH":22650,"BSTAR":0.00031254,"MEAN_MOTION_DOT":1.4e-06,"MEAN_MOTION_DDOT":0.0},{"OBJECT_NAME":"ONEWEB-0335","OBJECT_ID":"2021-083R","EPOCH":"2026-03-31T04:55:46.572096","MEAN_MOTION":13.13471591,"ECCENTRICITY":0.0001511,"INCLINATION":87.9007,"RA_OF_ASC_NODE":335.7582,"ARG_OF_PERICENTER":79.4084,"MEAN_ANOMALY":280.7215,"EPHEMERIS_TYPE":0,"CLASSIFICATION_TYPE":"U","NORAD_CAT_ID":49201,"ELEMENT_SET_NO":999,"REV_AT_EPOCH":22068,"BSTAR":0.00092972,"MEAN_MOTION_DOT":3.52e-06,"MEAN_MOTION_DDOT":0.0},{"OBJECT_NAME":"ONEWEB-0336","OBJECT_ID":"2021-083S","EPOCH":"2026-03-31T04:14:19.303584","MEAN_MOTION":13.1347056,"ECCENTRICITY":0.000135,"INCLINATION":87.9004,"RA_OF_ASC_NODE":335.7599,"ARG_OF_PERICENTER":72.6625,"MEAN_ANOMALY":287.4652,"EPHEMERIS_TYPE":0,"CLASSIFICATION_TYPE":"U","NORAD_CAT_ID":49202,"ELEMENT_SET_NO":999,"REV_AT_EPOCH":22067,"BSTAR":-0.0009295600000000001,"MEAN_MOTION_DOT":-3.27e-06,"MEAN_MOTION_DDOT":0.0},{"OBJECT_NAME":"ONEWEB-0337","OBJECT_ID":"2021-083T","EPOCH":"2026-03-31T04:28:46.730208","MEAN_MOTION":13.13471529,"ECCENTRICITY":0.0001653,"INCLINATION":87.9001,"RA_OF_ASC_NODE":335.7664,"ARG_OF_PERICENTER":74.337,"MEAN_ANOMALY":285.7941,"EPHEMERIS_TYPE":0,"CLASSIFICATION_TYPE":"U","NORAD_CAT_ID":49203,"ELEMENT_SET_NO":999,"REV_AT_EPOCH":22067,"BSTAR":0.00023752000000000002,"MEAN_MOTION_DOT":9.9e-07,"MEAN_MOTION_DDOT":0.0},{"OBJECT_NAME":"ONEWEB-0338","OBJECT_ID":"2021-083U","EPOCH":"2026-03-31T02:06:25.160544","MEAN_MOTION":13.20771969,"ECCENTRICITY":0.0002044,"INCLINATION":87.9135,"RA_OF_ASC_NODE":290.0504,"ARG_OF_PERICENTER":91.6697,"MEAN_ANOMALY":268.467,"EPHEMERIS_TYPE":0,"CLASSIFICATION_TYPE":"U","NORAD_CAT_ID":49204,"ELEMENT_SET_NO":999,"REV_AT_EPOCH":22650,"BSTAR":-8.7766e-06,"MEAN_MOTION_DOT":9e-08,"MEAN_MOTION_DDOT":0.0},{"OBJECT_NAME":"ONEWEB-0339","OBJECT_ID":"2021-083V","EPOCH":"2026-03-31T04:41:08.109600","MEAN_MOTION":13.13472008,"ECCENTRICITY":0.0001964,"INCLINATION":87.9009,"RA_OF_ASC_NODE":335.7546,"ARG_OF_PERICENTER":79.5552,"MEAN_ANOMALY":280.5799,"EPHEMERIS_TYPE":0,"CLASSIFICATION_TYPE":"U","NORAD_CAT_ID":49205,"ELEMENT_SET_NO":999,"REV_AT_EPOCH":22065,"BSTAR":0.00025912,"MEAN_MOTION_DOT":1.07e-06,"MEAN_MOTION_DDOT":0.0},{"OBJECT_NAME":"ONEWEB-0340","OBJECT_ID":"2021-083W","EPOCH":"2026-03-31T05:00:54.594144","MEAN_MOTION":13.18688384,"ECCENTRICITY":0.0001675,"INCLINATION":87.9246,"RA_OF_ASC_NODE":350.9506,"ARG_OF_PERICENTER":79.5511,"MEAN_ANOMALY":280.581,"EPHEMERIS_TYPE":0,"CLASSIFICATION_TYPE":"U","NORAD_CAT_ID":49206,"ELEMENT_SET_NO":999,"REV_AT_EPOCH":21969,"BSTAR":0.0002119,"MEAN_MOTION_DOT":9.6e-07,"MEAN_MOTION_DDOT":0.0}]